{"type": "FeatureCollection", "features": [ {"type": "Feature", "properties": {"norad_id": 66655, "name": "2025-274F", "group": "last-30-days", "lat": 24.01769990304056, "lon": 105.6676319901745, "alt_km": 596.8902568793583, "timestamp": "2025-12-21T03:56:49.614896+00:00", "meta": {"OBJECT_NAME": "2025-274F", "OBJECT_ID": "2025-274F", "EPOCH": "2025-12-20T17:35:19.351968", "MEAN_MOTION": 14.9117798, "ECCENTRICITY": 0.0004823, "INCLINATION": 97.733, "RA_OF_ASC_NODE": 281.7733, "ARG_OF_PERICENTER": 357.3568, "MEAN_ANOMALY": 2.7624, "EPHEMERIS_TYPE": 0, "CLASSIFICATION_TYPE": "U", "NORAD_CAT_ID": 66655, "ELEMENT_SET_NO": 999, "REV_AT_EPOCH": 359, "BSTAR": 4.1723e-06, "MEAN_MOTION_DOT": -1.4e-07, "MEAN_MOTION_DDOT": 0}, "tle": {"line1": "1 66655U 25274F   25354.73286287 -.00000014  00000+0  41723-5 0  9997", "line2": "2 66655  97.7330 281.7733 0004823 357.3568   2.7624 14.91177980  3599"}}, "geometry": {"type": "Point", "coordinates": [105.6676319901745, 24.01769990304056]}}, {"type": "Feature", "properties": {"norad_id": 66656, "name": "2025-274G", "group": "last-30-days", "lat": -17.13997621996064, "lon": 99.81512963955447, "alt_km": 587.9383984281876, "timestamp": "2025-12-21T03:56:49.614905+00:00", "meta": {"OBJECT_NAME": "2025-274G", "OBJECT_ID": "2025-274G", "EPOCH": "2025-12-20T19:01:09.400224", "MEAN_MOTION": 14.92315893, "ECCENTRICITY": 0.0012701, "INCLINATION": 97.7403, "RA_OF_ASC_NODE": 281.8537, "ARG_OF_PERICENTER": 227.3803, "MEAN_ANOMALY": 132.6345, "EPHEMERIS_TYPE": 0, "CLASSIFICATION_TYPE": "U", "NORAD_CAT_ID": 66656, "ELEMENT_SET_NO": 999, "REV_AT_EPOCH": 360, "BSTAR": 0.00016074, "MEAN_MOTION_DOT": 1.588e-05, "MEAN_MOTION_DDOT": 0}, "tle": {"line1": "1 66656U 25274G   25354.79246991  .00001588  00000+0  16074-3 0  9997", "line2": "2 66656  97.7403 281.8537 0012701 227.3803 132.6345 14.92315893  3609"}}, "geometry": {"type": "Point", "coordinates": [99.81512963955447, -17.13997621996064]}}, {"type": "Feature", "properties": {"norad_id": 66657, "name": "SPIRONE", "group": "last-30-days", "lat": -32.71654695935863, "lon": 97.21295517453136, "alt_km": 589.8789105341593, "timestamp": "2025-12-21T03:56:49.614917+00:00", "meta": {"OBJECT_NAME": "SPIRONE", "OBJECT_ID": "2025-274H", "EPOCH": "2025-12-20T18:56:59.578080", "MEAN_MOTION": 14.92494728, "ECCENTRICITY": 0.0010825, "INCLINATION": 97.74, "RA_OF_ASC_NODE": 281.8569, "ARG_OF_PERICENTER": 245.57, "MEAN_ANOMALY": 114.439, "EPHEMERIS_TYPE": 0, "CLASSIFICATION_TYPE": "U", "NORAD_CAT_ID": 66657, "ELEMENT_SET_NO": 999, "REV_AT_EPOCH": 360, "BSTAR": 0.00014714, "MEAN_MOTION_DOT": 1.455e-05, "MEAN_MOTION_DDOT": 0}, "tle": {"line1": "1 66657U 25274H   25354.78957845  .00001455  00000+0  14714-3 0  9996", "line2": "2 66657  97.7400 281.8569 0010825 245.5700 114.4390 14.92494728  3608"}}, "geometry": {"type": "Point", "coordinates": [97.21295517453136, -32.71654695935863]}}, {"type": "Feature", "properties": {"norad_id": 66658, "name": "2025-274J", "group": "last-30-days", "lat": -47.678185715563544, "lon": 93.64231759272671, "alt_km": 589.0271308877509, "timestamp": "2025-12-21T03:56:49.614926+00:00", "meta": {"OBJECT_NAME": "2025-274J", "OBJECT_ID": "2025-274J", "EPOCH": "2025-12-20T18:52:58.524672", "MEAN_MOTION": 14.92664797, "ECCENTRICITY": 0.0011338, "INCLINATION": 97.74, "RA_OF_ASC_NODE": 281.8607, "ARG_OF_PERICENTER": 248.8674, "MEAN_ANOMALY": 111.1334, "EPHEMERIS_TYPE": 0, "CLASSIFICATION_TYPE": "U", "NORAD_CAT_ID": 66658, "ELEMENT_SET_NO": 999, "REV_AT_EPOCH": 360, "BSTAR": 0.00013432, "MEAN_MOTION_DOT": 1.329e-05, "MEAN_MOTION_DDOT": 0}, "tle": {"line1": "1 66658U 25274J   25354.78678848  .00001329  00000+0  13432-3 0  9996", "line2": "2 66658  97.7400 281.8607 0011338 248.8674 111.1334 14.92664797  3605"}}, "geometry": {"type": "Point", "coordinates": [93.64231759272671, -47.678185715563544]}}, {"type": "Feature", "properties": {"norad_id": 66659, "name": "JACK K", "group": "last-30-days", "lat": -63.49742657451973, "lon": 86.41062551225737, "alt_km": 587.8984420043407, "timestamp": "2025-12-21T03:56:49.614935+00:00", "meta": {"OBJECT_NAME": "JACK K", "OBJECT_ID": "2025-274K", "EPOCH": "2025-12-20T18:48:39.993408", "MEAN_MOTION": 14.92849632, "ECCENTRICITY": 0.0012048, "INCLINATION": 97.7402, "RA_OF_ASC_NODE": 281.8653, "ARG_OF_PERICENTER": 250.4202, "MEAN_ANOMALY": 109.5717, "EPHEMERIS_TYPE": 0, "CLASSIFICATION_TYPE": "U", "NORAD_CAT_ID": 66659, "ELEMENT_SET_NO": 999, "REV_AT_EPOCH": 360, "BSTAR": 0.00012555, "MEAN_MOTION_DOT": 1.245e-05, "MEAN_MOTION_DDOT": 0}, "tle": {"line1": "1 66659U 25274K   25354.78379622  .00001245  00000+0  12555-3 0  9997", "line2": "2 66659  97.7402 281.8653 0012048 250.4202 109.5717 14.92849632  3603"}}, "geometry": {"type": "Point", "coordinates": [86.41062551225737, -63.49742657451973]}}, {"type": "Feature", "properties": {"norad_id": 66660, "name": "K-HERO", "group": "last-30-days", "lat": -75.57043188356448, "lon": 70.33297297771553, "alt_km": 587.1801662544603, "timestamp": "2025-12-21T03:56:49.614945+00:00", "meta": {"OBJECT_NAME": "K-HERO", "OBJECT_ID": "2025-274L", "EPOCH": "2025-12-20T18:45:10.711008", "MEAN_MOTION": 14.93000618, "ECCENTRICITY": 0.0012654, "INCLINATION": 97.7407, "RA_OF_ASC_NODE": 281.8694, "ARG_OF_PERICENTER": 251.1884, "MEAN_ANOMALY": 108.7963, "EPHEMERIS_TYPE": 0, "CLASSIFICATION_TYPE": "U", "NORAD_CAT_ID": 66660, "ELEMENT_SET_NO": 999, "REV_AT_EPOCH": 360, "BSTAR": 0.00012043, "MEAN_MOTION_DOT": 1.197e-05, "MEAN_MOTION_DDOT": 0}, "tle": {"line1": "1 66660U 25274L   25354.78137397  .00001197  00000+0  12043-3 0  9998", "line2": "2 66660  97.7407 281.8694 0012654 251.1884 108.7963 14.93000618  3600"}}, "geometry": {"type": "Point", "coordinates": [70.33297297771553, -75.57043188356448]}}, {"type": "Feature", "properties": {"norad_id": 66661, "name": "SNUGLITE-III", "group": "last-30-days", "lat": -82.23906868676515, "lon": 8.604412080926624, "alt_km": 586.8070067091594, "timestamp": "2025-12-21T03:56:49.614954+00:00", "meta": {"OBJECT_NAME": "SNUGLITE-III", "OBJECT_ID": "2025-274M", "EPOCH": "2025-12-20T18:41:49.245216", "MEAN_MOTION": 14.93134387, "ECCENTRICITY": 0.0013262, "INCLINATION": 97.7402, "RA_OF_ASC_NODE": 281.8718, "ARG_OF_PERICENTER": 252.4411, "MEAN_ANOMALY": 107.536, "EPHEMERIS_TYPE": 0, "CLASSIFICATION_TYPE": "U", "NORAD_CAT_ID": 66661, "ELEMENT_SET_NO": 999, "REV_AT_EPOCH": 360, "BSTAR": 0.0001423, "MEAN_MOTION_DOT": 1.429e-05, "MEAN_MOTION_DDOT": 0}, "tle": {"line1": "1 66661U 25274M   25354.77904219  .00001429  00000+0  14230-3 0  9991", "line2": "2 66661  97.7402 281.8718 0013262 252.4411 107.5360 14.93134387  3608"}}, "geometry": {"type": "Point", "coordinates": [8.604412080926624, -82.23906868676515]}}, {"type": "Feature", "properties": {"norad_id": 66662, "name": "2025-274N", "group": "last-30-days", "lat": -80.50529515122216, "lon": -23.328747819435495, "alt_km": 586.6720474905933, "timestamp": "2025-12-21T03:56:49.614963+00:00", "meta": {"OBJECT_NAME": "2025-274N", "OBJECT_ID": "2025-274N", "EPOCH": "2025-12-20T18:40:29.804736", "MEAN_MOTION": 14.93190655, "ECCENTRICITY": 0.0013684, "INCLINATION": 97.7406, "RA_OF_ASC_NODE": 281.8732, "ARG_OF_PERICENTER": 252.2689, "MEAN_ANOMALY": 107.7037, "EPHEMERIS_TYPE": 0, "CLASSIFICATION_TYPE": "U", "NORAD_CAT_ID": 66662, "ELEMENT_SET_NO": 999, "REV_AT_EPOCH": 360, "BSTAR": 0.00012049, "MEAN_MOTION_DOT": 1.203e-05, "MEAN_MOTION_DDOT": 0}, "tle": {"line1": "1 66662U 25274N   25354.77812274  .00001203  00000+0  12049-3 0  9997", "line2": "2 66662  97.7406 281.8732 0013684 252.2689 107.7037 14.93190655  3605"}}, "geometry": {"type": "Point", "coordinates": [-23.328747819435495, -80.50529515122216]}}, {"type": "Feature", "properties": {"norad_id": 66663, "name": "KSLV-II R/B", "group": "last-30-days", "lat": -72.840163548466, "lon": -51.421730306086914, "alt_km": 542.6595629832327, "timestamp": "2025-12-21T03:56:49.614972+00:00", "meta": {"OBJECT_NAME": "KSLV-II R/B", "OBJECT_ID": "2025-274P", "EPOCH": "2025-12-19T21:48:24.651360", "MEAN_MOTION": 14.97453325, "ECCENTRICITY": 0.0056754, "INCLINATION": 97.7442, "RA_OF_ASC_NODE": 281.1844, "ARG_OF_PERICENTER": 294.3607, "MEAN_ANOMALY": 65.1697, "EPHEMERIS_TYPE": 0, "CLASSIFICATION_TYPE": "U", "NORAD_CAT_ID": 66663, "ELEMENT_SET_NO": 999, "REV_AT_EPOCH": 348, "BSTAR": 0.0010967, "MEAN_MOTION_DOT": 0.0001315, "MEAN_MOTION_DDOT": 0}, "tle": {"line1": "1 66663U 25274P   25353.90861865  .00013150  00000+0  10967-2 0  9992", "line2": "2 66663  97.7442 281.1844 0056754 294.3607  65.1697 14.97453325  3480"}}, "geometry": {"type": "Point", "coordinates": [-51.421730306086914, -72.840163548466]}}, {"type": "Feature", "properties": {"norad_id": 66664, "name": "SOYUZ-MS 28", "group": "last-30-days", "lat": -50.22113942656803, "lon": -7.142794803969946, "alt_km": 420.1708587323392, "timestamp": "2025-12-21T03:56:49.614981+00:00", "meta": {"OBJECT_NAME": "SOYUZ-MS 28", "OBJECT_ID": "2025-275A", "EPOCH": "2025-12-20T14:27:14.497632", "MEAN_MOTION": 15.49685042, "ECCENTRICITY": 0.0003193, "INCLINATION": 51.6321, "RA_OF_ASC_NODE": 103.5427, "ARG_OF_PERICENTER": 277.2005, "MEAN_ANOMALY": 82.862, "EPHEMERIS_TYPE": 0, "CLASSIFICATION_TYPE": "U", "NORAD_CAT_ID": 66664, "ELEMENT_SET_NO": 999, "REV_AT_EPOCH": 366, "BSTAR": 0.00012984, "MEAN_MOTION_DOT": 6.881e-05, "MEAN_MOTION_DDOT": 0}, "tle": {"line1": "1 66664U 25275A   25354.60225113  .00006881  00000+0  12984-3 0  9997", "line2": "2 66664  51.6321 103.5427 0003193 277.2005  82.8620 15.49685042  3664"}}, "geometry": {"type": "Point", "coordinates": [-7.142794803969946, -50.22113942656803]}}]}